0 TITAN 3C TRANSTAGE DEB
1 38697U 68081X   13283.69848667 -.00000174  00000-0  00000+0 0  2116
2 38697 006.1686 328.2292 0146749 164.4887 195.8355 01.01477328 28020
0 TITAN 3C TRANSTAGE DEB
1 38697U 68081X   13283.69851456  .00000000  00000-0  10000-3 0  2118
2 38697 006.1652 328.2795 0183111 157.1697 203.5438 01.01474542 27813
0 TITAN 3C TRANSTAGE DEB
1 38697U 68081X   13287.64006465 -.00000342  00000-0  00000+0 0  2136
2 38697 006.1682 328.2447 0125160 172.0749 187.9397 01.01481011 28060
0 TITAN 3C TRANSTAGE DEB
1 38697U 68081X   13287.64019847 -.00000342  00000-0  00000+0 0  2145
2 38697 006.1700 328.2578 0122226 173.0185 186.9899 01.01480350 28062
0 TITAN 3C TRANSTAGE DEB
1 38697U 68081X   13289.61098569 -.00000330  00000-0  00000+0 0  2150
2 38697 006.1591 328.2178 0097762 178.5579 181.1825 01.01476745 28080
0 TITAN 3C TRANSTAGE DEB
1 38697U 68081X   13290.59655468  .00000000  00000-0  10000-3 0  2165
2 38697 006.1718 328.2807 0122460 171.3107 188.7418 01.01475368 27880
0 TITAN 3C TRANSTAGE DEB
1 38697U 68081X   13290.59673776 -.00000422  00000-0  00000+0 0  2161
2 38697 006.1578 328.2041 0103889 177.1429 182.7984 01.01476526 28092
0 TITAN 3C TRANSTAGE DEB
1 38697U 68081X   13291.58201256 -.00000338  00000-0  00000+0 0  2178
2 38697 006.1634 328.2373 0096975 179.3221 180.4621 01.01477544 28100
0 TITAN 3C TRANSTAGE DEB
1 38697U 68081X   13295.52392032 -.00000294  00000-0  00000+0 0  2181
2 38697 006.1559 328.2138 0076397 191.0968 168.5481 01.01478738 28141
